NORAD_CAT_ID,OBJECT_NAME,OBJECT_TYPE,EPOCH,MEAN_MOTION,ECCENTRICITY,INCLINATION,RA_OF_ASC_NODE,ARG_OF_PERICENTER,MEAN_ANOMALY,BSTAR,MEAN_MOTION_DOT,MEAN_MOTION_DDOT,TLE_LINE0,TLE_LINE1,TLE_LINE2,SEMIMAJOR_AXIS,PERIOD,APOGEE,PERIGEE,DECAYED
52674.0,STARLINK-3936,PAYLOAD,2024-01-14 10:34:56,15.08845129,0.000171,53.217,79.2403,71.0397,289.078,4.4453e-05,4.2e-06,0.0,0 STARLINK-3936,1 52674U 22053U   24014.44093528  .00000420  00000-0  44453-4 0  9992,2 52674  53.2170  79.2403 0001710  71.0397 289.0780 15.08845129 92508,6917.865,95.437,540.913,538.547,0.0
52674.0,STARLINK-3936,PAYLOAD,2024-01-15 04:04:11,15.08845519,0.0001746,53.2185,75.9679,83.6319,276.4872,5.9808e-05,6.64e-06,0.0,0 STARLINK-3936,1 52674U 22053U   24015.16957459  .00000664  00000-0  59808-4 0  9994,2 52674  53.2185  75.9679 0001746  83.6319 276.4872 15.08845519 92183,6917.864,95.437,540.936,538.521,0.0
52674.0,STARLINK-3936,PAYLOAD,2024-01-15 10:25:43,15.08848988,0.000176,53.2185,74.7782,98.7886,261.3305,7.3479e-05,8.82e-06,0.0,0 STARLINK-3936,1 52674U 22053U   24015.43452991  .00000882  00000-0  73479-4 0  9997,2 52674  53.2185  74.7782 0001760  98.7886 261.3305 15.08848988 92656,6917.853,95.437,540.935,538.5,0.0
52674.0,STARLINK-3936,PAYLOAD,2024-01-16 03:54:58,15.08835709,0.0001739,53.2174,71.5072,100.246,259.8729,-1.4148e-05,-5.13e-06,0.0,0 STARLINK-3936,1 52674U 22053U   24016.16318123 -.00000513  00000-0 -14148-4 0  9997,2 52674  53.2174  71.5072 0001739 100.2460 259.8729 15.08835709 92338,6917.894,95.438,540.962,538.555,0.0
52674.0,STARLINK-3936,PAYLOAD,2024-01-16 10:16:31,15.08837531,0.0001738,53.2179,70.3148,107.0073,253.111,-6.2997e-05,-1.29e-05,0.0,0 STARLINK-3936,1 52674U 22053U   24016.42814142 -.00001290  00000-0 -62997-4 0  9996,2 52674  53.2179  70.3148 0001738 107.0073 253.1110 15.08837531 92806,6917.888,95.438,540.955,538.551,0.0
52674.0,STARLINK-3936,PAYLOAD,2024-01-17 10:07:18,15.08845651,0.0001728,53.2183,65.8567,98.4315,261.6873,3.8688e-05,3.28e-06,0.0,0 STARLINK-3936,1 52674U 22053U   24017.42173643  .00000328  00000-0  38688-4 0  9990,2 52674  53.2183  65.8567 0001728  98.4315 261.6873 15.08845651 92527,6917.863,95.437,540.924,538.533,0.0
52674.0,STARLINK-3936,PAYLOAD,2024-01-17 22:50:23,15.08833269,0.0001645,53.2179,63.4785,107.2003,252.9169,8.8738e-05,1.124e-05,0.0,0 STARLINK-3936,1 52674U 22053U   24017.95166365  .00001124  00000-0  88738-4 0  9997,2 52674  53.2179  63.4785 0001645 107.2003 252.9169 15.08833269 92601,6917.901,95.438,540.904,538.628,0.0
52674.0,STARLINK-3936,PAYLOAD,2024-01-18 11:33:28,15.08836322,0.00017,53.2173,61.1024,76.7822,283.3359,0.00014484,2.018e-05,0.0,0 STARLINK-3936,1 52674U 22053U   24018.48158507  .00002018  00000-0  14484-3 0  9994,2 52674  53.2173  61.1024 0001700  76.7822 283.3359 15.08836322 93116,6917.892,95.438,540.933,538.581,0.0
52674.0,STARLINK-3936,PAYLOAD,2024-01-19 01:51:57,15.08840041,0.0001694,53.2179,58.423,93.3502,266.7684,-5.089e-06,-3.69e-06,0.0,0 STARLINK-3936,1 52674U 22053U   24019.07774689 -.00000369  00000-0 -50890-5 0  9997,2 52674  53.2179  58.4230 0001694  93.3502 266.7684 15.08840041 92772,6917.88,95.438,540.917,538.573,0.0
52674.0,STARLINK-3936,PAYLOAD,2024-01-19 09:48:52,15.08841166,0.0001645,53.2171,56.9368,71.2597,288.8573,5.1648e-05,5.34e-06,0.0,0 STARLINK-3936,1 52674U 22053U   24019.40894556  .00000534  00000-0  51648-4 0  9993,2 52674  53.2171  56.9368 0001645  71.2597 288.8573 15.08841166 93259,6917.877,95.437,540.88,538.604,0.0
52674.0,STARLINK-3936,PAYLOAD,2024-01-20 09:39:40,15.0883739,0.0001513,53.2163,52.4744,70.9289,289.1867,7.4991e-05,9.06e-06,0.0,0 STARLINK-3936,1 52674U 22053U   24020.40254908  .00000906  00000-0  74991-4 0  9995,2 52674  53.2163  52.4744 0001513  70.9289 289.1867 15.08837390 92979,6917.888,95.438,540.8,538.707,0.0
52674.0,STARLINK-3936,PAYLOAD,2024-01-20 22:22:44,15.08844255,0.0001612,53.2169,50.0956,84.5535,275.5641,0.00010167,1.331e-05,0.0,0 STARLINK-3936,1 52674U 22053U   24020.93246337  .00001331  00000-0  10167-3 0  9997,2 52674  53.2169  50.0956 0001612  84.5535 275.5641 15.08844255 93056,6917.867,95.437,540.848,538.617,0.0
52674.0,STARLINK-3936,PAYLOAD,2024-01-21 06:19:39,15.08853507,0.0001657,53.217,48.6087,91.2979,268.8203,0.00019715,2.852e-05,0.0,0 STARLINK-3936,1 52674U 22053U   24021.26365395  .00002852  00000-0  19715-3 0  9997,2 52674  53.2170  48.6087 0001657  91.2979 268.8203 15.08853507 93534,6917.839,95.437,540.85,538.558,0.0
52674.0,STARLINK-3936,PAYLOAD,2024-01-21 11:05:48,15.08864472,0.0001671,53.2171,47.7157,91.9341,268.1842,0.00026663,3.961e-05,0.0,0 STARLINK-3936,1 52674U 22053U   24021.46236545  .00003961  00000-0  26663-3 0  9995,2 52674  53.2171  47.7157 0001671  91.9341 268.1842 15.08864472 93130,6917.806,95.436,540.827,538.515,0.0
52674.0,STARLINK-3936,PAYLOAD,2024-01-22 01:24:18,15.08834111,0.0001625,53.2168,45.0408,81.3849,278.7327,3.8786e-05,3.29e-06,0.0,0 STARLINK-3936,1 52674U 22053U   24022.05855123  .00000329  00000-0  38786-4 0  9995,2 52674  53.2168  45.0408 0001625  81.3849 278.7327 15.08834111 93223,6917.898,95.438,540.888,538.639,0.0
52674.0,STARLINK-3936,PAYLOAD,2024-01-22 06:10:28,15.08833768,0.0001654,53.2162,44.1485,85.3182,274.7999,-3.0581e-05,-7.75e-06,0.0,0 STARLINK-3936,1 52674U 22053U   24022.25726898 -.00000775  00000-0 -30581-4 0  9995,2 52674  53.2162  44.1485 0001654  85.3182 274.7999 15.08833768 93686,6917.899,95.438,540.909,538.62,0.0
52674.0,STARLINK-3936,PAYLOAD,2024-01-22 07:45:51,15.08834694,0.000165,53.2156,43.8512,77.8098,282.3079,-3.5413e-05,-8.52e-06,0.0,0 STARLINK-3936,1 52674U 22053U   24022.32350848 -.00000852  00000-0 -35413-4 0  9996,2 52674  53.2156  43.8512 0001650  77.8098 282.3079 15.08834694 93698,6917.897,95.438,540.903,538.62,0.0
52674.0,STARLINK-3936,PAYLOAD,2024-01-23 06:01:15,15.0883984,0.0001734,53.216,39.6883,92.2701,267.849,-2.2669e-05,-6.49e-06,0.0,0 STARLINK-3936,1 52674U 22053U   24023.25086846 -.00000649  00000-0 -22669-4 0  9996,2 52674  53.2160  39.6883 0001734  92.2701 267.8490 15.08839840 93831,6917.881,95.438,540.945,538.546,0.0
52674.0,STARLINK-3936,PAYLOAD,2024-01-23 07:36:38,15.08843165,0.0001769,53.2161,39.391,98.1339,261.9854,3.5825e-05,2.82e-06,0.0,0 STARLINK-3936,1 52674U 22053U   24023.31710672  .00000282  00000-0  35825-4 0  9993,2 52674  53.2161  39.3910 0001769  98.1339 261.9854 15.08843165 93418,6917.871,95.437,540.959,538.512,0.0
52674.0,STARLINK-3936,PAYLOAD,2024-01-24 07:27:25,15.08835952,0.000202,53.2182,34.9305,108.9036,251.2176,0.00033133,4.988e-05,0.0,0 STARLINK-3936,1 52674U 22053U   24024.31071512  .00004988  00000-0  33133-3 0  9993,2 52674  53.2182  34.9305 0002020 108.9036 251.2176 15.08835952 93565,6917.893,95.438,541.155,538.36,0.0
52674.0,STARLINK-3936,PAYLOAD,2024-01-25 07:18:12,15.08848284,0.0002186,53.2183,30.4746,117.2493,242.8723,0.00017121,2.438e-05,0.0,0 STARLINK-3936,1 52674U 22053U   24025.30430915  .00002438  00000-0  17121-3 0  9996,2 52674  53.2183  30.4746 0002186 117.2493 242.8723 15.08848284 94140,6917.855,95.437,541.232,538.208,0.0
52674.0,STARLINK-3936,PAYLOAD,2024-01-26 03:58:13,15.08842427,0.0002428,53.2175,26.6051,129.8671,230.2535,1.3892e-05,-6.7e-07,0.0,0 STARLINK-3936,1 52674U 22053U   24026.16543076 -.00000067  00000-0  13892-4 0  9993,2 52674  53.2175  26.6051 0002428 129.8671 230.2535 15.08842427 93844,6917.873,95.437,541.418,538.058,0.0
52674.0,STARLINK-3936,PAYLOAD,2024-01-26 05:33:36,15.08841124,0.0002262,53.2176,26.3096,126.0893,234.0308,2.0965e-05,4.5e-07,0.0,0 STARLINK-3936,1 52674U 22053U   24026.23167134  .00000045  00000-0  20965-4 0  9992,2 52674  53.2176  26.3096 0002262 126.0893 234.0308 15.08841124 94284,6917.877,95.437,541.307,538.177,0.0
52674.0,STARLINK-3936,PAYLOAD,2024-01-27 08:35:09,15.08846122,0.0001725,53.2172,21.2491,105.4987,254.6196,5.6144e-05,6.06e-06,0.0,0 STARLINK-3936,1 52674U 22053U   24027.35775223  .00000606  00000-0  56144-4 0  9991,2 52674  53.2172  21.2491 0001725 105.4987 254.6196 15.08846122 94029,6917.862,95.437,540.92,538.533,0.0
52674.0,STARLINK-3936,PAYLOAD,2024-01-28 05:15:11,15.08840652,0.0001845,53.2183,17.3812,89.0894,271.031,9.2973e-05,1.192e-05,0.0,0 STARLINK-3936,1 52674U 22053U   24028.21887789  .00001192  00000-0  92973-4 0  9999,2 52674  53.2183  17.3812 0001845  89.0894 271.0310 15.08840652 94158,6917.878,95.438,541.02,538.467,0.0
52674.0,STARLINK-3936,PAYLOAD,2024-01-28 08:25:56,15.088469,0.0002128,53.219,16.7835,114.9435,245.1778,7.3489e-05,8.82e-06,0.0,0 STARLINK-3936,1 52674U 22053U   24028.35135245  .00000882  00000-0  73489-4 0  9993,2 52674  53.2190  16.7835 0002128 114.9435 245.1778 15.08846900 94172,6917.859,95.437,541.196,538.252,0.0
52674.0,STARLINK-3936,PAYLOAD,2024-01-28 22:44:25,15.08843721,0.0001714,53.2176,14.1157,101.3826,258.7359,6.9239e-05,8.14e-06,0.0,0 STARLINK-3936,1 52674U 22053U   24028.94751630  .00000814  00000-0  69239-4 0  9993,2 52674  53.2176  14.1157 0001714 101.3826 258.7359 15.08843721 94699,6917.869,95.437,540.92,538.548,0.0
52674.0,STARLINK-3936,PAYLOAD,2024-01-29 03:30:34,15.08842138,0.0001726,53.2178,13.2221,101.6837,258.4349,4.667e-05,4.55e-06,0.0,0 STARLINK-3936,1 52674U 22053U   24029.14623712  .00000455  00000-0  46670-4 0  9990,2 52674  53.2178  13.2221 0001726 101.6837 258.4349 15.08842138 94294,6917.874,95.437,540.933,538.545,0.0
52674.0,STARLINK-3936,PAYLOAD,2024-01-29 22:35:12,15.08846344,0.0001708,53.2183,9.6546,105.1059,255.0122,3.748e-06,-2.28e-06,0.0,0 STARLINK-3936,1 52674U 22053U   24029.94111787 -.00000228  00000-0  37480-5 0  9991,2 52674  53.2183   9.6546 0001708 105.1059 255.0122 15.08846344 94840,6917.861,95.437,540.908,538.544,0.0
52674.0,STARLINK-3936,PAYLOAD,2024-01-30 04:56:45,15.08844686,0.0001806,53.2188,8.4654,98.2464,261.8733,3.1781e-05,2.18e-06,0.0,0 STARLINK-3936,1 52674U 22053U   24030.20607743  .00000218  00000-0  31781-4 0  9999,2 52674  53.2188   8.4654 0001806  98.2464 261.8733 15.08844686 94450,6917.866,95.437,540.98,538.482,0.0
